OBJECT_NAME,OBJECT_ID,EPOCH,MEAN_MOTION,ECCENTRICITY,INCLINATION,RA_OF_ASC_NODE,ARG_OF_PERICENTER,MEAN_ANOMALY,EPHEMERIS_TYPE,CLASSIFICATION_TYPE,NORAD_CAT_ID,ELEMENT_SET_NO,REV_AT_EPOCH,BSTAR,MEAN_MOTION_DOT,MEAN_MOTION_DDOT
CUTE-1 (CO-55),2003-031E,2026-06-16T06:20:48.283008,14.24335232,.0009468,98.6736,175.8349,180.6624,179.4544,0,U,27844,999,19154,.12107E-3,.236E-5,0
CUBESAT XI-IV (CO-57),2003-031J,2026-06-16T12:48:20.937888,14.23620520,.00089785,98.6766,175.8138,199.0194,161.0650,0,U,27848,999,19128,.10539383E-3,.197E-5,0
CUBESAT XI-V,2005-043F,2026-06-16T09:12:06.602400,14.72629782,.00135859,98.2985,322.9884,203.3717,156.6874,0,U,28895,999,10163,.19648745E-3,.12E-4,0
CUTE-1.7+APD II (CO-65),2008-021C,2026-06-16T14:03:38.907936,15.09446364,.0009841,97.8272,148.9918,40.9477,319.2489,0,U,32785,999,98510,.2312706E-3,.3637E-4,0
CANX-2,2008-021H,2026-06-16T10:10:56.837280,15.05613108,.00114411,97.8634,147.1868,52.6900,307.5367,0,U,32790,999,98469,.28118469E-3,.3996E-4,0
SEEDS II (CO-66),2008-021J,2026-06-15T23:03:02.222496,15.32715926,.00012258,97.7511,164.7995,8.5431,351.5831,0,U,32791,999,98710,.47997359E-3,.15094E-3,0
SWISSCUBE,2009-051B,2026-06-16T13:16:10.944480,14.62480577,.00059209,98.4037,75.4301,205.2603,154.8309,0,U,35932,999,88906,.16935461E-3,.809E-5,0
BEESAT-1,2009-051C,2026-06-16T06:55:00.230304,14.61719271,.0004173,98.3965,74.7982,220.4264,139.6627,0,U,35933,999,88905,.14946E-3,.696E-5,0
ITUPSAT1,2009-051E,2026-06-16T13:15:23.198976,14.60439879,.00062368,98.4049,74.2590,236.3004,123.7602,0,U,35935,999,88864,.13914613E-3,.625E-5,0
TISAT 1,2010-035E,2026-06-16T14:16:02.571744,15.31688582,.00013216,98.0714,114.0908,168.3617,191.7653,0,U,36799,999,86761,.54374974E-3,.16569E-3,0
AEROCUBE 4.5A,2012-048K,2026-06-15T23:18:44.661600,15.95272059,.00195948,64.6243,31.3351,223.4007,136.5613,0,U,38767,999,37246,.1017409E-2,.410252E-2,.74312563E-4
STRAND-1,2013-009E,2026-06-16T13:38:51.850752,14.37162942,.00076982,98.3921,347.8182,227.4338,132.6200,0,U,39090,999,69697,.84083301E-4,.207E-5,0
BRITE-AUSTRIA,2013-009F,2026-06-16T10:36:25.369056,14.36541877,.00091252,98.3994,346.8961,239.0066,121.0225,0,U,39091,999,69694,.62459944E-4,.141E-5,0
NEE-01 PEGASO,2013-018B,2026-06-16T09:28:24.349728,14.93656509,.00130128,98.1216,311.5180,161.8951,198.2733,0,U,39151,999,71058,.2124008E-3,.2186E-4,0
POPACS 2,2013-055E,2026-06-15T08:45:09.057024,14.91171919,.04168853,80.9902,146.2784,199.6373,158.8380,0,U,39269,999,66294,.18375527E-3,.10853E-3,0
POPACS 3,2013-055F,2026-06-15T11:17:13.941600,14.56095763,.05523075,81.0017,231.0485,75.2193,290.9504,0,U,39270,999,63830,.18804419E-3,.8012E-4,0
ZACUBE-1 (TSHEPISOSAT),2013-066B,2026-06-16T14:34:41.171808,15.01186029,.00407404,97.8081,129.9413,249.6974,109.9870,0,U,39417,999,68064,.19729818E-3,.251E-4,0
WNISAT-1,2013-066H,2026-06-16T09:18:07.264512,14.58061076,.01619314,97.7200,316.6006,234.1292,124.4781,0,U,39423,999,66661,.14187777E-3,.731E-5,0
TRITON-1,2013-066M,2026-06-16T14:53:14.735616,14.81702007,.00884852,97.8254,77.4407,235.8044,123.4759,0,U,39427,999,67400,.10704453E-3,.843E-5,0
GOMX-1,2013-066Q,2026-06-16T12:07:14.833056,14.69458240,.01301809,97.6477,8.0110,79.7035,281.8819,0,U,39430,999,66981,.23737822E-3,.1551E-4,0
CUBEBUG-2 (LO-74),2013-066AA,2026-06-16T14:15:46.084896,14.93757220,.00584256,97.8908,116.5698,30.9918,329.4727,0,U,39440,999,67690,.35723127E-3,.3852E-4,0
NEE-02 KRYSAOR,2013-066AB,2026-06-15T12:38:09.714912,14.86612031,.00676896,97.8896,105.7532,75.5443,285.3271,0,U,39441,999,67595,.23065442E-3,.2075E-4,0
FUNCUBE-1 (AO-73),2013-066AE,2026-06-16T11:02:18.858336,15.09483494,.00355817,97.8275,138.8906,203.4552,156.5055,0,U,39444,999,67955,.3517602E-3,.565E-4,0
UWE-3,2013-066AG,2026-06-16T09:55:32.231136,14.97020137,.00477002,97.8696,123.4820,323.7124,36.0865,0,U,39446,999,67746,.3260796E-3,.3778E-4,0
BRITE-CA1 (TORONTO),2014-033L,2026-06-16T08:36:00.480960,14.72675728,.00772282,97.9738,296.3015,279.7207,79.5284,0,U,40020,999,64209,.98796361E-4,.605E-5,0
DUCHIFAT-1,2014-033M,2026-06-15T10:08:30.060960,15.64281009,.000328,98.0462,225.3358,119.3803,240.7782,0,U,40021,999,65547,.90896671E-3,.87303E-3,0
NANOSATC-BR1,2014-033Q,2026-06-16T00:42:12.724416,15.31427281,.00043059,98.0716,199.3145,165.7271,194.4091,0,U,40024,999,65380,.48536692E-3,.1466E-3,0
QB50P1,2014-033R,2026-06-16T13:21:57.609792,15.18252996,.00077363,98.0959,178.6589,217.5219,142.5474,0,U,40025,999,65293,.30977853E-3,.6273E-4,0
QB50P2,2014-033Y,2026-06-16T13:43:20.824320,15.15151501,.00079531,98.0746,164.4136,164.9395,195.2074,0,U,40032,999,65257,.27579388E-3,.5101E-4,0
PERSEUS-M2,2014-033AD,2026-06-16T14:16:28.801920,14.95506490,.00107789,97.9959,118.1235,305.9989,54.0231,0,U,40037,999,65069,.11014845E-3,.116E-4,0
